IRIDIUM 155             
1 43573U 18061E   21265.45651675  .00000021  00000-0  49756-6 0  9993
2 43573  86.3945  59.1459 0001571  99.1659 260.9714 14.34216876165570
IRIDIUM 154             
1 43574U 18061F   21265.43748373  .00000022  00000-0  96790-6 0  9995
2 43574  86.3950  59.2051 0002150  85.6901 274.4541 14.34216951165628
IRIDIUM 163             
1 43575U 18061G   21265.41843783  .00000014  00000-0 -22023-5 0  9994
2 43575  86.3949  59.1807 0002534  97.8894 262.2590 14.34216617165591
IRIDIUM 156             
1 43576U 18061H   21265.39306786  .00000024  00000-0  16025-5 0  9994
2 43576  86.3949  59.1964 0002133 101.2673 258.8763 14.34216931165587
IRIDIUM 164             
1 43577U 18061J   21265.44382853  .00000019  00000-0 -39795-6 0  9995
2 43577  86.3949  59.1897 0002218  88.9767 271.1683 14.34216670165637
IRIDIUM 159             
1 43578U 18061K   21265.13305703  .00000058  00000-0  13824-4 0  9996
2 43578  86.3948  59.2923 0002252  88.1636 271.9818 14.34218411165557
IRIDIUM 180             
1 43922U 19002A   21265.55114705  .00000098  00000-0  27842-4 0  9990
2 43922  86.4027 356.0024 0003048  84.4579 275.6965 14.34218035141266
IRIDIUM 176             
1 43923U 19002B   21265.53630734  .00000233  00000-0  32959-4 0  9990
2 43923  86.6160 356.0426 0002383  93.1077 267.0413 14.72256579144919
IRIDIUM 168             
1 43924U 19002C   21265.19596065  .00000097  00000-0  27743-4 0  9994
2 43924  86.4029 356.1791 0002396  89.1118 271.0352 14.34216094141159
IRIDIUM 173             
1 43925U 19002D   21265.53212056  .00000122  00000-0  36456-4 0  9998
2 43925  86.4025 355.9980 0002371  91.3355 268.8112 14.34216333141181
IRIDIUM 169             
1 43926U 19002E   21265.37401503  .00000110  00000-0  29598-4 0  9994
2 43926  86.4268  27.6386 0002730 273.6919  86.3967 14.38606171141676
IRIDIUM 172             
1 43927U 19002F   21265.52577668  .00000104  00000-0  29936-4 0  9997
2 43927  86.4026 356.0033 0002444  89.7536 270.3940 14.34217387141196
IRIDIUM 175             
1 43928U 19002G   21265.53013920  .00000226  00000-0  31904-4 0  9998
2 43928  86.6161 355.8679 0002921  96.2552 263.8998 14.72253463144902
IRIDIUM 171             
1 43929U 19002H   21265.29743909  .00000093  00000-0  26055-4 0  9992
2 43929  86.4035 356.2129 0002346  88.6711 271.4754 14.34220054141156
IRIDIUM 170             
1 43930U 19002J   21265.54249653  .00000244  00000-0  34717-4 0  9991
2 43930  86.6160 356.0460 0002505  90.1028 270.0476 14.72251710144920
IRIDIUM 167             
1 43931U 19002K   21265.50039650  .00000100  00000-0  28549-4 0  9999
2 43931  86.4027 356.0211 0002811  84.8544 275.2973 14.34216644141187
